[{"OBJECT_NAME":"STARLINK-30558","OBJECT_ID":"2023-158K","EPOCH":"2026-03-09T22:18:10.395936","MEAN_MOTION":15.27260686,"ECCENTRICITY":0.00012044,"INCLINATION":43.0041,"RA_OF_ASC_NODE":25.9333,"ARG_OF_PERICENTER":261.9473,"MEAN_ANOMALY":98.1242,"EPHEMERIS_TYPE":0,"CLASSIFICATION_TYPE":"U","NORAD_CAT_ID":58060,"ELEMENT_SET_NO":999,"REV_AT_EPOCH":13360,"BSTAR":0.0022219006,"MEAN_MOTION_DOT":0.00060789,"MEAN_MOTION_DDOT":0},{"OBJECT_NAME":"FENGYUN 1C DEB","OBJECT_ID":"1999-025DNE","EPOCH":"2026-03-03T04:32:20.578848","MEAN_MOTION":15.05751159,"ECCENTRICITY":0.01321557,"INCLINATION":98.9662,"RA_OF_ASC_NODE":53.9178,"ARG_OF_PERICENTER":282.0758,"MEAN_ANOMALY":76.5683,"EPHEMERIS_TYPE":0,"CLASSIFICATION_TYPE":"U","NORAD_CAT_ID":35174,"ELEMENT_SET_NO":999,"REV_AT_EPOCH":91373,"BSTAR":0.0030573957,"MEAN_MOTION_DOT":0.00054187,"MEAN_MOTION_DDOT":0}]
